IRIDIUM 116             
1 43072U 17083C   24339.88077680 -.00000132  00000+0 -54326-4 0  9991
2 43072  86.4006 195.7471 0001693  86.3196 273.8193 14.34216890364002
IRIDIUM 130             
1 43073U 17083D   24339.84906407 -.00000006  00000+0 -93054-5 0  9998
2 43073  86.4012 195.9807 0001734  81.7010 278.4383 14.34217440363941
IRIDIUM 151             
1 43074U 17083E   24339.89345295  .00000123  00000+0  36864-4 0  9999
2 43074  86.4003 195.7869 0001924  90.1257 270.0159 14.34212499363977
IRIDIUM 134             
1 43075U 17083F   24339.86174976  .00000033  00000+0  47715-5 0  9991
2 43075  86.4009 195.8006 0001758  83.6804 276.4592 14.34217513363937
IRIDIUM 137             
1 43076U 17083G   24339.66512090  .00000892  00000+0  31159-3 0  9999
2 43076  86.4003 195.9632 0001680  94.7258 265.4129 14.34210608363974
IRIDIUM 141             
1 43077U 17083H   24339.86809784  .00000674  00000+0  23350-3 0  9993
2 43077  86.3999 195.7419 0002286  81.3290 278.8165 14.34216213364001
IRIDIUM 153             
1 43078U 17083J   24339.89003851  .00000162  00000+0  50691-4 0  9999
2 43078  86.3984 164.2601 0002623  85.9053 274.2442 14.34218828365117
IRIDIUM 131             
1 43079U 17083K   24339.85539958  .00000074  00000+0  19221-4 0  9994
2 43079  86.4010 195.8957 0002124  86.8506 273.2932 14.34222240363936
